CCSDS_OMM_VERS = 2.0
CREATION_DATE  = 
ORIGINATOR     = 

OBJECT_NAME    = ISS OBJECT XK
OBJECT_ID      = 1998-067XK
CENTER_NAME    = EARTH
REF_FRAME      = TEME
TIME_SYSTEM    = UTC
MEAN_ELEMENT_THEORY = SGP/SGP4

EPOCH          = 2026-02-28T09:04:35.264352
MEAN_MOTION    = 16.00286626
ECCENTRICITY   = .0007081
INCLINATION    = 51.6180
RA_OF_ASC_NODE = 96.0923
ARG_OF_PERICENTER = 34.0609
MEAN_ANOMALY   = 326.0854

EPHEMERIS_TYPE = 0
CLASSIFICATION_TYPE = U
NORAD_CAT_ID   = 65731
ELEMENT_SET_NO = 999
REV_AT_EPOCH   = 2540
BSTAR          = .12148E-2
MEAN_MOTION_DOT = .647913E-2
MEAN_MOTION_DDOT = .19993E-3

CCSDS_OMM_VERS = 2.0
CREATION_DATE  = 
ORIGINATOR     = 

OBJECT_NAME    = YOTSUBA-KULOVER
OBJECT_ID      = 1998-067XN
CENTER_NAME    = EARTH
REF_FRAME      = TEME
TIME_SYSTEM    = UTC
MEAN_ELEMENT_THEORY = SGP/SGP4

EPOCH          = 2026-02-28T09:34:39.507168
MEAN_MOTION    = 15.76599293
ECCENTRICITY   = .0006128
INCLINATION    = 51.6225
RA_OF_ASC_NODE = 105.3364
ARG_OF_PERICENTER = 14.4988
MEAN_ANOMALY   = 345.6186

EPHEMERIS_TYPE = 0
CLASSIFICATION_TYPE = U
NORAD_CAT_ID   = 65941
ELEMENT_SET_NO = 999
REV_AT_EPOCH   = 2203
BSTAR          = .94663E-3
MEAN_MOTION_DOT = .156672E-2
MEAN_MOTION_DDOT = 0

CCSDS_OMM_VERS = 2.0
CREATION_DATE  = 
ORIGINATOR     = 

OBJECT_NAME    = BOTAN
OBJECT_ID      = 1998-067XP
CENTER_NAME    = EARTH
REF_FRAME      = TEME
TIME_SYSTEM    = UTC
MEAN_ELEMENT_THEORY = SGP/SGP4

EPOCH          = 2026-02-28T08:04:55.591392
MEAN_MOTION    = 16.09764360
ECCENTRICITY   = .0008031
INCLINATION    = 51.6100
RA_OF_ASC_NODE = 98.7850
ARG_OF_PERICENTER = 32.0409
MEAN_ANOMALY   = 328.1092

EPHEMERIS_TYPE = 0
CLASSIFICATION_TYPE = U
NORAD_CAT_ID   = 65942
ELEMENT_SET_NO = 999
REV_AT_EPOCH   = 2211
BSTAR          = .16545E-2
MEAN_MOTION_DOT = .1546827E-1
MEAN_MOTION_DDOT = .16907E-2

CCSDS_OMM_VERS = 2.0
CREATION_DATE  = 
ORIGINATOR     = 

OBJECT_NAME    = E-KAGAKU-1
OBJECT_ID      = 1998-067XQ
CENTER_NAME    = EARTH
REF_FRAME      = TEME
TIME_SYSTEM    = UTC
MEAN_ELEMENT_THEORY = SGP/SGP4

EPOCH          = 2026-02-28T09:38:40.264224
MEAN_MOTION    = 15.76374151
ECCENTRICITY   = .0006317
INCLINATION    = 51.6247
RA_OF_ASC_NODE = 105.3702
ARG_OF_PERICENTER = 22.7475
MEAN_ANOMALY   = 337.3804

EPHEMERIS_TYPE = 0
CLASSIFICATION_TYPE = U
NORAD_CAT_ID   = 65943
ELEMENT_SET_NO = 999
REV_AT_EPOCH   = 2203
BSTAR          = .92964E-3
MEAN_MOTION_DOT = .152253E-2
MEAN_MOTION_DDOT = 0

CCSDS_OMM_VERS = 2.0
CREATION_DATE  = 
ORIGINATOR     = 

OBJECT_NAME    = HRC MONOBLOCK CAMERA
OBJECT_ID      = 1998-067XR
CENTER_NAME    = EARTH
REF_FRAME      = TEME
TIME_SYSTEM    = UTC
MEAN_ELEMENT_THEORY = SGP/SGP4

EPOCH          = 2026-02-27T09:31:50.199456
MEAN_MOTION    = 15.60992325
ECCENTRICITY   = .00031704
INCLINATION    = 51.6283
RA_OF_ASC_NODE = 117.4313
ARG_OF_PERICENTER = 49.9480
MEAN_ANOMALY   = 310.1791

EPHEMERIS_TYPE = 0
CLASSIFICATION_TYPE = U
NORAD_CAT_ID   = 66052
ELEMENT_SET_NO = 999
REV_AT_EPOCH   = 2078
BSTAR          = .5705658E-3
MEAN_MOTION_DOT = .48635E-3
MEAN_MOTION_DDOT = 0

CCSDS_OMM_VERS = 2.0
CREATION_DATE  = 
ORIGINATOR     = 

OBJECT_NAME    = HTV-X1
OBJECT_ID      = 2025-241A
CENTER_NAME    = EARTH
REF_FRAME      = TEME
TIME_SYSTEM    = UTC
MEAN_ELEMENT_THEORY = SGP/SGP4

EPOCH          = 2026-02-28T09:55:22.865376
MEAN_MOTION    = 15.48358440
ECCENTRICITY   = .0008299
INCLINATION    = 51.6325
RA_OF_ASC_NODE = 118.2146
ARG_OF_PERICENTER = 142.1568
MEAN_ANOMALY   = 218.0005

EPHEMERIS_TYPE = 0
CLASSIFICATION_TYPE = U
NORAD_CAT_ID   = 66174
ELEMENT_SET_NO = 999
REV_AT_EPOCH   = 55461
BSTAR          = .18003E-3
MEAN_MOTION_DOT = .927E-4
MEAN_MOTION_DDOT = 0

CCSDS_OMM_VERS = 2.0
CREATION_DATE  = 
ORIGINATOR     = 

OBJECT_NAME    = SZ-21 MODULE
OBJECT_ID      = 2025-246C
CENTER_NAME    = EARTH
REF_FRAME      = TEME
TIME_SYSTEM    = UTC
MEAN_ELEMENT_THEORY = SGP/SGP4

EPOCH          = 2026-02-28T06:22:46.032384
MEAN_MOTION    = 15.67723977
ECCENTRICITY   = .000145
INCLINATION    = 41.4738
RA_OF_ASC_NODE = 261.3392
ARG_OF_PERICENTER = 285.9736
MEAN_ANOMALY   = 74.0946

EPHEMERIS_TYPE = 0
CLASSIFICATION_TYPE = U
NORAD_CAT_ID   = 66515
ELEMENT_SET_NO = 999
REV_AT_EPOCH   = 1659
BSTAR          = .30009E-3
MEAN_MOTION_DOT = .3365E-3
MEAN_MOTION_DDOT = 0

CCSDS_OMM_VERS = 2.0
CREATION_DATE  = 
ORIGINATOR     = 

OBJECT_NAME    = SHENZHOU-22
OBJECT_ID      = 2025-272A
CENTER_NAME    = EARTH
REF_FRAME      = TEME
TIME_SYSTEM    = UTC
MEAN_ELEMENT_THEORY = SGP/SGP4

EPOCH          = 2026-02-28T05:50:22.962912
MEAN_MOTION    = 15.60219288
ECCENTRICITY   = .0006303
INCLINATION    = 41.4655
RA_OF_ASC_NODE = 265.6207
ARG_OF_PERICENTER = 213.2010
MEAN_ANOMALY   = 146.8433

EPHEMERIS_TYPE = 0
CLASSIFICATION_TYPE = U
NORAD_CAT_ID   = 66645
ELEMENT_SET_NO = 999
REV_AT_EPOCH   = 26763
BSTAR          = .27649E-3
MEAN_MOTION_DOT = .22938E-3
MEAN_MOTION_DDOT = 0

CCSDS_OMM_VERS = 2.0
CREATION_DATE  = 
ORIGINATOR     = 

OBJECT_NAME    = SOYUZ-MS 28
OBJECT_ID      = 2025-275A
CENTER_NAME    = EARTH
REF_FRAME      = TEME
TIME_SYSTEM    = UTC
MEAN_ELEMENT_THEORY = SGP/SGP4

EPOCH          = 2026-02-28T09:55:22.865376
MEAN_MOTION    = 15.48358440
ECCENTRICITY   = .0008299
INCLINATION    = 51.6325
RA_OF_ASC_NODE = 118.2146
ARG_OF_PERICENTER = 142.1568
MEAN_ANOMALY   = 218.0005

EPHEMERIS_TYPE = 0
CLASSIFICATION_TYPE = U
NORAD_CAT_ID   = 66664
ELEMENT_SET_NO = 999
REV_AT_EPOCH   = 55466
BSTAR          = .18003E-3
MEAN_MOTION_DOT = .927E-4
MEAN_MOTION_DDOT = 0

CCSDS_OMM_VERS = 2.0
CREATION_DATE  = 
ORIGINATOR     = 

OBJECT_NAME    = DUPLEX
OBJECT_ID      = 1998-067XS
CENTER_NAME    = EARTH
REF_FRAME      = TEME
TIME_SYSTEM    = UTC
MEAN_ELEMENT_THEORY = SGP/SGP4

EPOCH          = 2026-02-28T09:37:46.845696
MEAN_MOTION    = 15.55539070
ECCENTRICITY   = .0001912
INCLINATION    = 51.6291
RA_OF_ASC_NODE = 115.8870
ARG_OF_PERICENTER = 83.2309
MEAN_ANOMALY   = 276.8900

EPHEMERIS_TYPE = 0
CLASSIFICATION_TYPE = U
NORAD_CAT_ID   = 66906
ELEMENT_SET_NO = 999
REV_AT_EPOCH   = 1368
BSTAR          = .42215E-3
MEAN_MOTION_DOT = .2905E-3
MEAN_MOTION_DDOT = 0

CCSDS_OMM_VERS = 2.0
CREATION_DATE  = 
ORIGINATOR     = 

OBJECT_NAME    = ISS OBJECT XT
OBJECT_ID      = 1998-067XT
CENTER_NAME    = EARTH
REF_FRAME      = TEME
TIME_SYSTEM    = UTC
MEAN_ELEMENT_THEORY = SGP/SGP4

EPOCH          = 2026-02-28T09:40:48.486144
MEAN_MOTION    = 15.66261003
ECCENTRICITY   = .0004339
INCLINATION    = 51.6261
RA_OF_ASC_NODE = 112.8925
ARG_OF_PERICENTER = 25.3295
MEAN_ANOMALY   = 334.7912

EPHEMERIS_TYPE = 0
CLASSIFICATION_TYPE = U
NORAD_CAT_ID   = 66907
ELEMENT_SET_NO = 999
REV_AT_EPOCH   = 1372
BSTAR          = .11055E-2
MEAN_MOTION_DOT = .117659E-2
MEAN_MOTION_DDOT = 0

CCSDS_OMM_VERS = 2.0
CREATION_DATE  = 
ORIGINATOR     = 

OBJECT_NAME    = ISS OBJECT XU
OBJECT_ID      = 1998-067XU
CENTER_NAME    = EARTH
REF_FRAME      = TEME
TIME_SYSTEM    = UTC
MEAN_ELEMENT_THEORY = SGP/SGP4

EPOCH          = 2026-02-28T09:39:02.579616
MEAN_MOTION    = 15.66332482
ECCENTRICITY   = .0004432
INCLINATION    = 51.6257
RA_OF_ASC_NODE = 112.8812
ARG_OF_PERICENTER = 27.6839
MEAN_ANOMALY   = 332.4392

EPHEMERIS_TYPE = 0
CLASSIFICATION_TYPE = U
NORAD_CAT_ID   = 66908
ELEMENT_SET_NO = 999
REV_AT_EPOCH   = 1372
BSTAR          = .10904E-2
MEAN_MOTION_DOT = .116366E-2
MEAN_MOTION_DDOT = 0

