ISS OBJECT XK           
1 65731U 98067XK  26059.37818593  .00647913  19993-3  12148-2 0  9990
2 65731  51.6180  96.0923 0007081  34.0609 326.0854 16.00286626 25408
YOTSUBA-KULOVER         
1 65941U 98067XN  26059.39906837  .00156672  00000+0  94663-3 0  9999
2 65941  51.6225 105.3364 0006128  14.4988 345.6186 15.76599293 22037
BOTAN                   
1 65942U 98067XP  26059.33675453  .01546827  16907-2  16545-2 0  9995
2 65942  51.6100  98.7850 0008031  32.0409 328.1092 16.09764360 22111
E-KAGAKU-1              
1 65943U 98067XQ  26059.40185491  .00152253  00000+0  92964-3 0  9991
2 65943  51.6247 105.3702 0006317  22.7475 337.3804 15.76374151 22031
HRC MONOBLOCK CAMERA    
1 66052U 98067XR  26058.39710879  .00048635  00000+0  57057-3 0  9996
2 66052  51.6283 117.4313 0003170  49.9480 310.1791 15.60992325 20782
HTV-X1                  
1 66174U 25241A   26059.41345909  .00009270  00000+0  18003-3 0  9997
2 66174  51.6325 118.2146 0008299 142.1568 218.0005 15.48358440554615
SZ-21 MODULE            
1 66515U 25246C   26059.26581056  .00033650  00000+0  30009-3 0  9998
2 66515  41.4738 261.3392 0001450 285.9736  74.0946 15.67723977 16593
SHENZHOU-22             
1 66645U 25272A   26059.24332133  .00022938  00000+0  27649-3 0  9992
2 66645  41.4655 265.6207 0006303 213.2010 146.8433 15.60219288267638
SOYUZ-MS 28             
1 66664U 25275A   26059.41345909  .00009270  00000+0  18003-3 0  9998
2 66664  51.6325 118.2146 0008299 142.1568 218.0005 15.48358440554664
DUPLEX                  
1 66906U 98067XS  26059.40123664  .00029050  00000+0  42215-3 0  9997
2 66906  51.6291 115.8870 0001912  83.2309 276.8900 15.55539070 13681
ISS OBJECT XT           
1 66907U 98067XT  26059.40333896  .00117659  00000+0  11055-2 0  9998
2 66907  51.6261 112.8925 0004339  25.3295 334.7912 15.66261003 13726
ISS OBJECT XU           
1 66908U 98067XU  26059.40211319  .00116366  00000+0  10904-2 0  9990
2 66908  51.6257 112.8812 0004432  27.6839 332.4392 15.66332482 13727
